CTC2_L_00504001-01
1 18360U 26931EZ  26070.40849537  .00000000  00000+0  00000-0 0  9993
2 18360  96.7000   0.0000 0000000   0.0000   0.0000 15.82278075    18
CTC2_L_00504002-01
1 18361U 22035AB  26070.40849537  .00000000  00000+0  00000-0 0  9995
2 18361  96.7000  12.0000 0000000   0.0000  48.0000 15.82278075    14
CTC2_L_00504003-01
1 18362U 26128UE  26070.40849537  .00000000  00000+0  00000-0 0  9993
2 18362  96.7000  24.0000 0000000   0.0000  96.0000 15.82278075    11
CTC2_L_00504004-01
1 18363U 23437LY  26070.40849537  .00000000  00000+0  00000-0 0  9994
2 18363  96.7000  36.0000 0000000   0.0000 144.0000 15.82278075    19
CTC2_L_00504005-01
1 18364U 26043KU  26070.40849537  .00000000  00000+0  00000-0 0  9991
2 18364  96.7000  48.0000 0000000   0.0000 192.0000 15.82278075    16
CTC2_L_00504006-01
1 18365U 23848KZ  26070.40849537  .00000000  00000+0  00000-0 0  9992
2 18365  96.7000  60.0000 0000000   0.0000 240.0000 15.82278075    15
CTC2_L_00504007-01
1 18366U 24408PZ  26070.40849537  .00000000  00000+0  00000-0 0  9996
2 18366  96.7000  72.0000 0000000   0.0000 288.0000 15.82278075    11
CTC2_L_00504008-01
1 18367U 25561AR  26070.40849537  .00000000  00000+0  00000-0 0  9998
2 18367  96.7000  84.0000 0000000   0.0000 336.0000 15.82278075    19
CTC2_L_00504009-01
1 18368U 24642XA  26070.40849537  .00000000  00000+0  00000-0 0  9998
2 18368  96.7000  96.0000 0000000   0.0000  24.0000 15.82278075    17
CTC2_L_00504010-01
1 18369U 24605UC  26070.40849537  .00000000  00000+0  00000-0 0  9998
2 18369  96.7000 108.0000 0000000   0.0000  72.0000 15.82278075    15
CTC2_L_00504011-01
1 18370U 24531ZK  26070.40849537  .00000000  00000+0  00000-0 0  9998
2 18370  96.7000 120.0000 0000000   0.0000 120.0000 15.82278075    15
CTC2_L_00504012-01
1 18371U 24541AZ  26070.40849537  .00000000  00000+0  00000-0 0  9990
2 18371  96.7000 132.0000 0000000   0.0000 168.0000 15.82278075    11
CTC2_L_00504013-01
1 18372U 25841KA  26070.40849537  .00000000  00000+0  00000-0 0  9995
2 18372  96.7000 144.0000 0000000   0.0000 216.0000 15.82278075    19
CTC2_L_00504014-01
1 18373U 26736CL  26070.40849537  .00000000  00000+0  00000-0 0  9990
2 18373  96.7000 156.0000 0000000   0.0000 264.0000 15.82278075    16
CTC2_L_00504015-01
1 18374U 25508BQ  26070.40849537  .00000000  00000+0  00000-0 0  9997
2 18374  96.7000 168.0000 0000000   0.0000 312.0000 15.82278075    14
CTC2_L_00504016-01
1 18375U 23162KS  26070.40849537  .00000000  00000+0  00000-0 0  9992
2 18375  96.7000 180.0000 0000000   0.0000   0.0000 15.82278075    13
CTC2_L_00504017-01
1 18376U 26619WY  26070.40849537  .00000000  00000+0  00000-0 0  9993
2 18376  96.7000 192.0000 0000000   0.0000  48.0000 15.82278075    19
CTC2_L_00504018-01
1 18377U 23083GK  26070.40849537  .00000000  00000+0  00000-0 0  9996
2 18377  96.7000 204.0000 0000000   0.0000  96.0000 15.82278075    17
CTC2_L_00504019-01
1 18378U 26094GS  26070.40849537  .00000000  00000+0  00000-0 0  9992
2 18378  96.7000 216.0000 0000000   0.0000 144.0000 15.82278075    15
CTC2_L_00504020-01
1 18379U 26547PU  26070.40849537  .00000000  00000+0  00000-0 0  9996
2 18379  96.7000 228.0000 0000000   0.0000 192.0000 15.82278075    12
CTC2_L_00504021-01
1 18380U 24738LC  26070.40849537  .00000000  00000+0  00000-0 0  9998
2 18380  96.7000 240.0000 0000000   0.0000 240.0000 15.82278075    12
CTC2_L_00504022-01
1 18381U 23614MM  26070.40849537  .00000000  00000+0  00000-0 0  9991
2 18381  96.7000 252.0000 0000000   0.0000 288.0000 15.82278075    18
CTC2_L_00504023-01
1 18382U 25618HI  26070.40849537  .00000000  00000+0  00000-0 0  9998
2 18382  96.7000 264.0000 0000000   0.0000 336.0000 15.82278075    16
CTC2_L_00504024-01
1 18383U 24311MU  26070.40849537  .00000000  00000+0  00000-0 0  9998
2 18383  96.7000 276.0000 0000000   0.0000  24.0000 15.82278075    14
CTC2_L_00504025-01
1 18384U 22905AU  26070.40849537  .00000000  00000+0  00000-0 0  9996
2 18384  96.7000 288.0000 0000000   0.0000  72.0000 15.82278075    11
CTC2_L_00504026-01
1 18385U 25687V   26070.40849537  .00000000  00000+0  00000-0 0  9997
2 18385  96.7000 300.0000 0000000   0.0000 120.0000 15.82278075    11
CTC2_L_00504027-01
1 18386U 22075TT  26070.40849537  .00000000  00000+0  00000-0 0  9996
2 18386  96.7000 312.0000 0000000   0.0000 168.0000 15.82278075    17
CTC2_L_00504028-01
1 18387U 22925SN  26070.40849537  .00000000  00000+0  00000-0 0  9991
2 18387  96.7000 324.0000 0000000   0.0000 216.0000 15.82278075    15
CTC2_L_00504029-01
1 18388U 22481YF  26070.40849537  .00000000  00000+0  00000-0 0  9999
2 18388  96.7000 336.0000 0000000   0.0000 264.0000 15.82278075    12
CTC2_L_00504030-01
1 18389U 24801N   26070.40849537  .00000000  00000+0  00000-0 0  9998
2 18389  96.7000 348.0000 0000000   0.0000 312.0000 15.82278075    10
